EUTELSAT 7A             
1 28187U 04008A   25341.33168034  .00000105  00000+0  00000+0 0  9995
2 28187   5.3441  74.3083 0001548 215.6683 126.5708  1.00270739 79429
EUTELSAT 174A           
1 28924U 05052A   25341.17458615  .00000012  00000+0  00000+0 0  9990
2 28924   3.7336  78.9137 0006593 177.0832  57.0395  1.00271891 50402
EUTELSAT HOTBIRD 13B    
1 29270U 06032A   25341.28933353  .00000160  00000+0  00000+0 0  9997
2 29270   1.1661  84.4035 0003767 170.6078 318.5687  1.00273605 45385
EUTELSAT HOTBIRD 13C    
1 33459U 08065A   25341.27425343 -.00000274  00000+0  00000+0 0  9990
2 33459   2.4570  81.4773 0001461 204.4294 206.0511  1.00047799 45428
EUTELSAT 36B            
1 36101U 09065A   25341.22138644  .00000117  00000+0  00000+0 0  9993
2 36101   0.0384 353.6489 0006532 262.7363 310.0490  1.00271139 58780
EUTELSAT KA-SAT 9A      
1 37258U 10069A   25341.28456683  .00000066  00000+0  00000+0 0  9998
2 37258   0.0513 332.7744 0001600 213.5375   1.4607  1.00269884 42089
EUTELSAT 7 WEST A       
1 37816U 11051A   25341.28127347 -.00000055  00000+0  00000+0 0  9991
2 37816   0.0670  15.7654 0005919 213.7368 300.7699  1.00271894 51958
EUTELSAT 16A            
1 37836U 11057A   25341.28595351  .00000108  00000+0  00000+0 0  9991
2 37836   0.0581 356.5753 0005900 263.6262 295.0570  1.00270147  5407
